{
    "links": {
        "self": "http://www.neowsapp.com/rest/v1/neo/3774379?api_key=iIulBulltgU6a56xZRHN4H3l9WmuAYTsLGpBGhQ2"
    },
    "id": "3774379",
    "neo_reference_id": "3774379",
    "name": "(2017 HO49)",
    "designation": "2017 HO49",
    "nasa_jpl_url": "http://ssd.jpl.nasa.gov/sbdb.cgi?sstr=3774379",
    "absolute_magnitude_h": 24.4,
    "estimated_diameter": {
        "kilometers": {
            "estimated_diameter_min": 0.0350392641,
            "estimated_diameter_max": 0.0783501764
        },
        "meters": {
            "estimated_diameter_min": 35.0392641108,
            "estimated_diameter_max": 78.3501764334
        },
        "miles": {
            "estimated_diameter_min": 0.0217723826,
            "estimated_diameter_max": 0.0486845275
        },
        "feet": {
            "estimated_diameter_min": 114.9582192654,
            "estimated_diameter_max": 257.0543928497
        }
    },
    "is_potentially_hazardous_asteroid": false,
    "close_approach_data": [
        {
            "close_approach_date": "1989-07-04",
            "close_approach_date_full": "1989-Jul-04 23:53",
            "epoch_date_close_approach": 615599580000,
            "relative_velocity": {
                "kilometers_per_second": "4.4638111323",
                "kilometers_per_hour": "16069.7200761314",
                "miles_per_hour": "9985.0991217495"
            },
            "miss_distance": {
                "astronomical": "0.9055703481",
                "lunar": "352.2668654109",
                "kilometers": "135471395.210918547",
                "miles": "84178021.5973360686"
            },
            "orbiting_body": "Juptr"
        },
        {
            "close_approach_date": "2017-05-23",
            "close_approach_date_full": "2017-May-23 01:34",
            "epoch_date_close_approach": 1495503240000,
            "relative_velocity": {
                "kilometers_per_second": "10.0046589107",
                "kilometers_per_hour": "36016.7720785236",
                "miles_per_hour": "22379.4215173471"
            },
            "miss_distance": {
                "astronomical": "0.083283217",
                "lunar": "32.397171413",
                "kilometers": "12458991.86994779",
                "miles": "7741658.562507902"
            },
            "orbiting_body": "Earth"
        },
        {
            "close_approach_date": "2143-10-03",
            "close_approach_date_full": "2143-Oct-03 09:48",
            "epoch_date_close_approach": 5483152080000,
            "relative_velocity": {
                "kilometers_per_second": "6.1355629466",
                "kilometers_per_hour": "22088.0266078199",
                "miles_per_hour": "13724.6407552867"
            },
            "miss_distance": {
                "astronomical": "1.3197475609",
                "lunar": "513.3818011901",
                "kilometers": "197431424.048335283",
                "miles": "122678198.2399935854"
            },
            "orbiting_body": "Juptr"
        }
    ],
    "orbital_data": {
        "orbit_id": "5",
        "orbit_determination_date": "2017-06-14 06:17:38",
        "first_observation_date": "2017-04-27",
        "last_observation_date": "2017-05-28",
        "data_arc_in_days": 31,
        "observations_used": 34,
        "orbit_uncertainty": "7",
        "minimum_orbit_intersection": ".0584403",
        "jupiter_tisserand_invariant": "3.098",
        "epoch_osculation": "2459000.5",
        "eccentricity": ".6036616620616079",
        "semi_major_axis": "2.643280708470816",
        "inclination": "6.280026089623478",
        "ascending_node_longitude": "52.2245104719611",
        "orbital_period": "1569.688065844877",
        "perihelion_distance": "1.047633482699939",
        "perihelion_argument": "213.0924171380559",
        "aphelion_distance": "4.238927934241693",
        "perihelion_time": "2459484.659313228095",
        "mean_anomaly": "248.9605160702427",
        "mean_motion": ".2293449302656395",
        "equinox": "J2000",
        "orbit_class": {
            "orbit_class_type": "AMO",
            "orbit_class_description": "Near-Earth asteroid orbits similar to that of 1221 Amor",
            "orbit_class_range": "1.017 AU < q (perihelion) < 1.3 AU"
        }
    },
    "is_sentry_object": false
}